[{"OBJECT_NAME":"STARLINK-3057","OBJECT_ID":"2021-082K","EPOCH":"2026-03-09T21:07:46.077024","MEAN_MOTION":14.98332376,"ECCENTRICITY":0.00026723,"INCLINATION":69.9986,"RA_OF_ASC_NODE":253.9616,"ARG_OF_PERICENTER":269.0716,"MEAN_ANOMALY":91.0136,"EPHEMERIS_TYPE":0,"CLASSIFICATION_TYPE":"U","NORAD_CAT_ID":49139,"ELEMENT_SET_NO":999,"REV_AT_EPOCH":24699,"BSTAR":1.7534562e-5,"MEAN_MOTION_DOT":1.16e-6,"MEAN_MOTION_DDOT":0},{"OBJECT_NAME":"GEESAT-2 03","OBJECT_ID":"2024-023C","EPOCH":"2026-03-09T23:27:51.195168","MEAN_MOTION":14.9659792,"ECCENTRICITY":0.00063134,"INCLINATION":50.0004,"RA_OF_ASC_NODE":73.5934,"ARG_OF_PERICENTER":3.6102,"MEAN_ANOMALY":356.4887,"EPHEMERIS_TYPE":0,"CLASSIFICATION_TYPE":"U","NORAD_CAT_ID":58907,"ELEMENT_SET_NO":999,"REV_AT_EPOCH":11446,"BSTAR":0.00027230842,"MEAN_MOTION_DOT":2.885e-5,"MEAN_MOTION_DDOT":0}]
